[{"OBJECT_NAME":"STARLINK-6044","OBJECT_ID":"2023-064AH","EPOCH":"2026-03-09T13:25:56.817696","MEAN_MOTION":14.98326461,"ECCENTRICITY":0.0003376,"INCLINATION":69.9997,"RA_OF_ASC_NODE":124.6333,"ARG_OF_PERICENTER":269.6306,"MEAN_ANOMALY":90.4466,"EPHEMERIS_TYPE":0,"CLASSIFICATION_TYPE":"U","NORAD_CAT_ID":56479,"ELEMENT_SET_NO":999,"REV_AT_EPOCH":15572,"BSTAR":-5.2639e-5,"MEAN_MOTION_DOT":-7.21e-6,"MEAN_MOTION_DDOT":0},{"OBJECT_NAME":"PEGASUS DEB","OBJECT_ID":"1994-029AEQ","EPOCH":"2026-03-09T08:40:11.508384","MEAN_MOTION":14.70940867,"ECCENTRICITY":0.01619331,"INCLINATION":81.9633,"RA_OF_ASC_NODE":47.0468,"ARG_OF_PERICENTER":351.1383,"MEAN_ANOMALY":8.6969,"EPHEMERIS_TYPE":0,"CLASSIFICATION_TYPE":"U","NORAD_CAT_ID":29033,"ELEMENT_SET_NO":999,"REV_AT_EPOCH":21443,"BSTAR":0.0030025525,"MEAN_MOTION_DOT":0.00022643,"MEAN_MOTION_DDOT":0}]
